COSMOS 2228             
1 22286U 92094A   25331.11269009  .00002769  00000+0  24027-3 0  9997
2 22286  82.5177 335.4875 0016404 289.2237  70.7210 14.96620430760718
SL-16 R/B               
1 22566U 93016B   25330.80257875  .00000033  00000+0  41568-4 0  9998
2 22566  71.0090  71.2741 0008169 127.6684 232.5181 14.15289040687614
COSMOS 2242             
1 22626U 93024A   25331.18550596  .00002711  00000+0  23899-3 0  9993
2 22626  82.5199   4.7111 0014866 291.9660  67.9981 14.96011329765066
SL-16 R/B               
1 22803U 93059B   25330.99230919 -.00000087  00000+0 -19081-4 0  9995
2 22803  70.9897 227.6917 0017031 358.9464   1.1621 14.17207930664980
ARIANE 40 R/B           
1 22830U 93061H   25331.18498201  .00000274  00000+0  11657-3 0  9996
2 22830  98.5095  36.9967 0010017 223.0314 137.0088 14.32786055679423
COSMOS 2278             
1 23087U 94023A   25331.18856122  .00000134  00000+0  94535-4 0  9992
2 23087  71.0558  29.5456 0009257 200.9639 159.1106 14.14349702630312
SL-16 R/B               
1 23088U 94023B   25330.99907606  .00000248  00000+0  15285-3 0  9995
2 23088  70.9994 286.5411 0001110 107.0484 253.0760 14.14993004631564
SL-16 R/B               
1 23343U 94074B   25331.04373198  .00000605  00000+0  88061-4 0  9995
2 23343  97.7220   0.9710 0006361 183.2349 206.9467 14.79262576672072
SL-16 R/B               
1 23405U 94077B   25330.95003234 -.00000242  00000+0 -98970-4 0  9996
2 23405  70.9818 208.6305 0004574 296.5750  63.4904 14.15546838601690
ARIANE 40+ R/B          
1 23561U 95021B   25331.16236493  .00000379  00000+0  13499-3 0  9999
2 23561  98.4668  38.9380 0007907  90.6794 297.9613 14.39677263604497
SL-16 R/B               
1 23705U 95058B   25331.16395304  .00000070  00000+0  60131-4 0  9990
2 23705  71.0224  35.5060 0014912 274.8717  85.0703 14.15474919553345
SL-16 R/B               
1 24298U 96051B   25331.19102480 -.00000022  00000+0  14715-4 0  9991
2 24298  70.7608  32.1957 0018902 280.5679  79.3311 14.12394329507171
